FENGYUN 1C DEB          
1 31157U 99025BHK 26071.19712902  .00000817  00000+0  36378-3 0  9994
2 31157  98.4887  56.3972 0101470  65.6554 295.5178 14.22695740982555
FENGYUN 1C DEB          
1 31158U 99025BHL 26068.44772749  .00006399  00000+0  22632-2 0  9992
2 31158  98.7717 153.3386 0049893 139.8524 220.6363 14.34247214657229
FENGYUN 1C DEB          
1 31159U 99025BHM 26074.19039870  .00146564  00000+0  18886-2 0  9998
2 31159  97.8063  45.7399 0082459  42.5196 318.2403 15.54499784  9619
FENGYUN 1C DEB          
1 31160U 99025BHN 26073.61338759  .00000013  00000+0  38576-4 0  9992
2 31160  99.0678 134.1016 0058519   2.4885 357.6560 13.99627314708847
FENGYUN 1C DEB          
1 31161U 99025BHP 26074.32166496  .00000462  00000+0  28252-3 0  9996
2 31161  98.7415  98.2241 0069770  87.9202 272.9957 14.09369910974060
FENGYUN 1C DEB          
1 31163U 99025BHR 26055.89960755  .00001067  00000+0  40572-3 0  9990
2 31163  98.9764 291.0890 0055586  37.1850 323.3162 14.32281950658038
FENGYUN 1C DEB          
1 31165U 99025BHT 26073.96584575  .00008429  00000+0  12849-2 0  9996
2 31165  98.8694 147.1321 0066229 307.6039 232.0387 14.72693798  1017
FENGYUN 1C DEB          
1 31168U 99025BHW 26074.13829447  .00007864  00000+0  12525-2 0  9992
2 31168  98.8987 218.3316 0107004 137.3007 223.6574 14.68491859  4533
FENGYUN 1C DEB          
1 31169U 99025BHX 26071.55043219  .00004549  00000+0  18373-2 0  9995
2 31169  99.1448 107.0992 0059299 120.2343 240.4725 14.27440171583858
FENGYUN 1C DEB          
1 31171U 99025BHZ 26073.72607675  .00022125  00000+0  65256-2 0  9993
2 31171  98.0240  62.0438 0151472  39.1835 140.7599 14.37067288971503
FENGYUN 1C DEB          
1 31172U 99025BJA 26074.27035134  .00000512  00000+0  18542-3 0  9993
2 31172  98.4276  81.0515 0148903 354.9878   4.9807 14.31609900989503
FENGYUN 1C DEB          
1 31175U 99025BJD 26069.24824696  .00030604  00000+0  54633-2 0  9991
2 31175  98.4005  75.9070 0065124 252.6252 106.7822 14.65483473669186
FENGYUN 1C DEB          
1 31177U 99025BJF 26073.68619147  .00004777  00000+0  44801-2 0  9997
2 31177  98.7577 343.0048 0306162  71.9052 319.7371 13.63008498674648
FENGYUN 1C DEB          
1 31178U 99025BJG 26074.29323144  .00004397  00000+0  18191-2 0  9996
2 31178  99.5130  88.8694 0125286  54.8074 306.4759 14.23040646971319
FENGYUN 1C DEB          
1 31179U 99025BJH 26063.27452208  .00001804  00000+0  11895-2 0  9991
2 31179  99.0145  86.0405 0216288 138.1101 223.6836 13.92190422630750
FENGYUN 1C DEB          
1 31180U 99025BJJ 26073.84368501  .00001373  00000+0  66197-3 0  9996
2 31180  99.2265 207.0386 0497625 178.2691 336.5673 13.70498389653280
