[{"OBJECT_NAME":"FENGYUN 1C DEB","OBJECT_ID":"1999-025BHK","EPOCH":"2026-03-12T04:43:51.947328","MEAN_MOTION":14.2269574,"ECCENTRICITY":0.01014702,"INCLINATION":98.4887,"RA_OF_ASC_NODE":56.3972,"ARG_OF_PERICENTER":65.6554,"MEAN_ANOMALY":295.5178,"EPHEMERIS_TYPE":0,"CLASSIFICATION_TYPE":"U","NORAD_CAT_ID":31157,"ELEMENT_SET_NO":999,"REV_AT_EPOCH":98255,"BSTAR":0.00036378492,"MEAN_MOTION_DOT":8.17e-6,"MEAN_MOTION_DDOT":0},{"OBJECT_NAME":"FENGYUN 1C DEB","OBJECT_ID":"1999-025BHL","EPOCH":"2026-03-09T10:44:43.655136","MEAN_MOTION":14.34247214,"ECCENTRICITY":0.0049893,"INCLINATION":98.7717,"RA_OF_ASC_NODE":153.3386,"ARG_OF_PERICENTER":139.8524,"MEAN_ANOMALY":220.6363,"EPHEMERIS_TYPE":0,"CLASSIFICATION_TYPE":"U","NORAD_CAT_ID":31158,"ELEMENT_SET_NO":999,"REV_AT_EPOCH":65722,"BSTAR":0.0022632,"MEAN_MOTION_DOT":6.399e-5,"MEAN_MOTION_DDOT":0},{"OBJECT_NAME":"FENGYUN 1C DEB","OBJECT_ID":"1999-025BHM","EPOCH":"2026-03-15T04:34:10.447680","MEAN_MOTION":15.54499784,"ECCENTRICITY":0.00824598,"INCLINATION":97.8063,"RA_OF_ASC_NODE":45.7399,"ARG_OF_PERICENTER":42.5196,"MEAN_ANOMALY":318.2403,"EPHEMERIS_TYPE":0,"CLASSIFICATION_TYPE":"U","NORAD_CAT_ID":31159,"ELEMENT_SET_NO":999,"REV_AT_EPOCH":961,"BSTAR":0.0018886436,"MEAN_MOTION_DOT":0.00146564,"MEAN_MOTION_DDOT":0},{"OBJECT_NAME":"FENGYUN 1C DEB","OBJECT_ID":"1999-025BHN","EPOCH":"2026-03-14T14:43:16.687776","MEAN_MOTION":13.99627314,"ECCENTRICITY":0.00585195,"INCLINATION":99.0678,"RA_OF_ASC_NODE":134.1016,"ARG_OF_PERICENTER":2.4885,"MEAN_ANOMALY":357.656,"EPHEMERIS_TYPE":0,"CLASSIFICATION_TYPE":"U","NORAD_CAT_ID":31160,"ELEMENT_SET_NO":999,"REV_AT_EPOCH":70884,"BSTAR":3.8575821e-5,"MEAN_MOTION_DOT":1.3e-7,"MEAN_MOTION_DDOT":0},{"OBJECT_NAME":"FENGYUN 1C DEB","OBJECT_ID":"1999-025BHP","EPOCH":"2026-03-15T07:43:11.852544","MEAN_MOTION":14.0936991,"ECCENTRICITY":0.00697705,"INCLINATION":98.7415,"RA_OF_ASC_NODE":98.2241,"ARG_OF_PERICENTER":87.9202,"MEAN_ANOMALY":272.9957,"EPHEMERIS_TYPE":0,"CLASSIFICATION_TYPE":"U","NORAD_CAT_ID":31161,"ELEMENT_SET_NO":999,"REV_AT_EPOCH":97406,"BSTAR":0.00028252121,"MEAN_MOTION_DOT":4.62e-6,"MEAN_MOTION_DDOT":0},{"OBJECT_NAME":"FENGYUN 1C DEB","OBJECT_ID":"1999-025BHR","EPOCH":"2026-02-24T21:35:26.092320","MEAN_MOTION":14.3228195,"ECCENTRICITY":0.0055586,"INCLINATION":98.9764,"RA_OF_ASC_NODE":291.089,"ARG_OF_PERICENTER":37.185,"MEAN_ANOMALY":323.3162,"EPHEMERIS_TYPE":0,"CLASSIFICATION_TYPE":"U","NORAD_CAT_ID":31163,"ELEMENT_SET_NO":999,"REV_AT_EPOCH":65803,"BSTAR":0.00040572,"MEAN_MOTION_DOT":1.067e-5,"MEAN_MOTION_DDOT":0},{"OBJECT_NAME":"FENGYUN 1C DEB","OBJECT_ID":"1999-025BHT","EPOCH":"2026-03-14T23:10:49.072800","MEAN_MOTION":14.72693798,"ECCENTRICITY":0.00662297,"INCLINATION":98.8694,"RA_OF_ASC_NODE":147.1321,"ARG_OF_PERICENTER":307.6039,"MEAN_ANOMALY":232.0387,"EPHEMERIS_TYPE":0,"CLASSIFICATION_TYPE":"U","NORAD_CAT_ID":31165,"ELEMENT_SET_NO":999,"REV_AT_EPOCH":101,"BSTAR":0.0012849087,"MEAN_MOTION_DOT":8.429e-5,"MEAN_MOTION_DDOT":0},{"OBJECT_NAME":"FENGYUN 1C DEB","OBJECT_ID":"1999-025BHW","EPOCH":"2026-03-15T03:19:08.642208","MEAN_MOTION":14.68491859,"ECCENTRICITY":0.01070049,"INCLINATION":98.8987,"RA_OF_ASC_NODE":218.3316,"ARG_OF_PERICENTER":137.3007,"MEAN_ANOMALY":223.6574,"EPHEMERIS_TYPE":0,"CLASSIFICATION_TYPE":"U","NORAD_CAT_ID":31168,"ELEMENT_SET_NO":999,"REV_AT_EPOCH":453,"BSTAR":0.0012525013,"MEAN_MOTION_DOT":7.864e-5,"MEAN_MOTION_DDOT":0},{"OBJECT_NAME":"FENGYUN 1C DEB","OBJECT_ID":"1999-025BHX","EPOCH":"2026-03-12T13:12:37.341216","MEAN_MOTION":14.27440171,"ECCENTRICITY":0.0059299,"INCLINATION":99.1448,"RA_OF_ASC_NODE":107.0992,"ARG_OF_PERICENTER":120.2343,"MEAN_ANOMALY":240.4725,"EPHEMERIS_TYPE":0,"CLASSIFICATION_TYPE":"U","NORAD_CAT_ID":31169,"ELEMENT_SET_NO":999,"REV_AT_EPOCH":58385,"BSTAR":0.0018373,"MEAN_MOTION_DOT":4.549e-5,"MEAN_MOTION_DDOT":0},{"OBJECT_NAME":"FENGYUN 1C DEB","OBJECT_ID":"1999-025BHZ","EPOCH":"2026-03-14T17:25:33.031200","MEAN_MOTION":14.37067288,"ECCENTRICITY":0.01514726,"INCLINATION":98.024,"RA_OF_ASC_NODE":62.0438,"ARG_OF_PERICENTER":39.1835,"MEAN_ANOMALY":140.7599,"EPHEMERIS_TYPE":0,"CLASSIFICATION_TYPE":"U","NORAD_CAT_ID":31171,"ELEMENT_SET_NO":999,"REV_AT_EPOCH":97150,"BSTAR":0.0065255873,"MEAN_MOTION_DOT":0.00022125,"MEAN_MOTION_DDOT":0},{"OBJECT_NAME":"FENGYUN 1C DEB","OBJECT_ID":"1999-025BJA","EPOCH":"2026-03-15T06:29:18.355776","MEAN_MOTION":14.316099,"ECCENTRICITY":0.01489034,"INCLINATION":98.4276,"RA_OF_ASC_NODE":81.0515,"ARG_OF_PERICENTER":354.9878,"MEAN_ANOMALY":4.9807,"EPHEMERIS_TYPE":0,"CLASSIFICATION_TYPE":"U","NORAD_CAT_ID":31172,"ELEMENT_SET_NO":999,"REV_AT_EPOCH":98950,"BSTAR":0.00018542331,"MEAN_MOTION_DOT":5.12e-6,"MEAN_MOTION_DDOT":0},{"OBJECT_NAME":"FENGYUN 1C DEB","OBJECT_ID":"1999-025BJD","EPOCH":"2026-03-10T05:57:28.537344","MEAN_MOTION":14.65483473,"ECCENTRICITY":0.0065124,"INCLINATION":98.4005,"RA_OF_ASC_NODE":75.907,"ARG_OF_PERICENTER":252.6252,"MEAN_ANOMALY":106.7822,"EPHEMERIS_TYPE":0,"CLASSIFICATION_TYPE":"U","NORAD_CAT_ID":31175,"ELEMENT_SET_NO":999,"REV_AT_EPOCH":66918,"BSTAR":0.0054633,"MEAN_MOTION_DOT":0.00030604,"MEAN_MOTION_DDOT":0},{"OBJECT_NAME":"FENGYUN 1C DEB","OBJECT_ID":"1999-025BJF","EPOCH":"2026-03-14T16:28:06.943008","MEAN_MOTION":13.63008498,"ECCENTRICITY":0.0306162,"INCLINATION":98.7577,"RA_OF_ASC_NODE":343.0048,"ARG_OF_PERICENTER":71.9052,"MEAN_ANOMALY":319.7371,"EPHEMERIS_TYPE":0,"CLASSIFICATION_TYPE":"U","NORAD_CAT_ID":31177,"ELEMENT_SET_NO":999,"REV_AT_EPOCH":67464,"BSTAR":0.0044800731,"MEAN_MOTION_DOT":4.777e-5,"MEAN_MOTION_DDOT":0},{"OBJECT_NAME":"FENGYUN 1C DEB","OBJECT_ID":"1999-025BJG","EPOCH":"2026-03-15T07:02:15.196416","MEAN_MOTION":14.23040646,"ECCENTRICITY":0.01252862,"INCLINATION":99.513,"RA_OF_ASC_NODE":88.8694,"ARG_OF_PERICENTER":54.8074,"MEAN_ANOMALY":306.4759,"EPHEMERIS_TYPE":0,"CLASSIFICATION_TYPE":"U","NORAD_CAT_ID":31178,"ELEMENT_SET_NO":999,"REV_AT_EPOCH":97131,"BSTAR":0.0018191327,"MEAN_MOTION_DOT":4.397e-5,"MEAN_MOTION_DDOT":0},{"OBJECT_NAME":"FENGYUN 1C DEB","OBJECT_ID":"1999-025BJH","EPOCH":"2026-03-04T06:35:18.707712","MEAN_MOTION":13.92190422,"ECCENTRICITY":0.02162886,"INCLINATION":99.0145,"RA_OF_ASC_NODE":86.0405,"ARG_OF_PERICENTER":138.1101,"MEAN_ANOMALY":223.6836,"EPHEMERIS_TYPE":0,"CLASSIFICATION_TYPE":"U","NORAD_CAT_ID":31179,"ELEMENT_SET_NO":999,"REV_AT_EPOCH":63075,"BSTAR":0.00118955,"MEAN_MOTION_DOT":1.804e-5,"MEAN_MOTION_DDOT":0},{"OBJECT_NAME":"FENGYUN 1C DEB","OBJECT_ID":"1999-025BJJ","EPOCH":"2026-03-14T20:14:54.384864","MEAN_MOTION":13.70498389,"ECCENTRICITY":0.04976251,"INCLINATION":99.2265,"RA_OF_ASC_NODE":207.0386,"ARG_OF_PERICENTER":178.2691,"MEAN_ANOMALY":336.5673,"EPHEMERIS_TYPE":0,"CLASSIFICATION_TYPE":"U","NORAD_CAT_ID":31180,"ELEMENT_SET_NO":999,"REV_AT_EPOCH":65328,"BSTAR":0.00066196691,"MEAN_MOTION_DOT":1.373e-5,"MEAN_MOTION_DDOT":0}]
